STARLINK-31520          
1 59210U 24046K   26068.52933173 -.00002188  00000+0 -61778-4 0  9991
2 59210  53.1606 156.1783 0001257  93.8100 266.3045 15.30191029113021
TOMORROW-S1             
1 60479U 24149M   26068.72470524  .00008620  00000+0  28856-3 0  9996
2 60479  97.3791 149.6044 0001819 207.2040 152.9106 15.31198362 86867
